NORAD_CAT_ID,OBJECT_NAME,OBJECT_TYPE,EPOCH,MEAN_MOTION,ECCENTRICITY,INCLINATION,RA_OF_ASC_NODE,ARG_OF_PERICENTER,MEAN_ANOMALY,BSTAR,MEAN_MOTION_DOT,MEAN_MOTION_DDOT,TLE_LINE0,TLE_LINE1,TLE_LINE2,SEMIMAJOR_AXIS,PERIOD,APOGEE,PERIGEE,DECAYED
50199.0,STARLINK-3270,PAYLOAD,2024-03-22 17:50:10,15.08860153,0.0001423,53.2163,217.618,98.6097,261.5057,0.00041692,6.357e-05,0.0,0 STARLINK-3270,1 50199U 21125AV  24082.74317810  .00006357  00000-0  41692-3 0  9998,2 50199  53.2163 217.6180 0001423  98.6097 261.5057 15.08860153128015,6917.819,95.436,540.668,538.699,0.0
50199.0,STARLINK-3270,PAYLOAD,2024-03-23 12:54:49,15.08831584,0.0001629,53.2168,214.0503,96.2021,263.9157,-7.8292e-05,-1.534e-05,0.0,0 STARLINK-3270,1 50199U 21125AV  24083.53807575 -.00001534  00000-0 -78292-4 0  9999,2 50199  53.2168 214.0503 0001629  96.2021 263.9157 15.08831584128135,6917.906,95.438,540.898,538.644,0.0
50199.0,STARLINK-3270,PAYLOAD,2024-03-23 17:40:58,15.08838048,0.0001525,53.2169,213.1606,91.1299,268.9867,-3.488e-05,-8.43e-06,0.0,0 STARLINK-3270,1 50199U 21125AV  24083.73679217 -.00000843  00000-0 -34880-4 0  9998,2 50199  53.2169 213.1606 0001525  91.1299 268.9867 15.08838048128647,6917.886,95.438,540.806,538.696,0.0
50199.0,STARLINK-3270,PAYLOAD,2024-03-24 12:45:36,15.08854246,0.0001524,53.2169,209.5938,84.3556,275.761,0.00041226,6.282e-05,0.0,0 STARLINK-3270,1 50199U 21125AV  24084.53166818  .00006282  00000-0  41226-3 0  9997,2 50199  53.2169 209.5938 0001524  84.3556 275.7610 15.08854246128283,6917.837,95.437,540.756,538.648,0.0
50199.0,STARLINK-3270,PAYLOAD,2024-03-24 14:20:59,15.08853054,0.0002001,53.2161,209.2977,68.2717,291.8488,0.00056975,8.794e-05,0.0,0 STARLINK-3270,1 50199U 21125AV  24084.59790992  .00008794  00000-0  56975-3 0  9996,2 50199  53.2161 209.2977 0002001  68.2717 291.8488 15.08853054128778,6917.84,95.437,541.09,538.321,0.0
50199.0,STARLINK-3270,PAYLOAD,2024-03-24 15:56:21,15.08870248,0.0001509,53.2163,208.9925,82.1103,278.0061,0.001002,0.00015708,0.0,0 STARLINK-3270,1 50199U 21125AV  24084.66414187  .00015708  00000-0  10020-2 0  9996,2 50199  53.2163 208.9925 0001509  82.1103 278.0061 15.08870248128302,6917.788,95.436,540.697,538.609,0.0
50199.0,STARLINK-3270,PAYLOAD,2024-03-25 01:28:41,15.08862277,0.0001863,53.2171,207.2091,83.3069,276.8135,0.00086852,0.0001357,0.0,0 STARLINK-3270,1 50199U 21125AV  24085.06158700  .00013570  00000-0  86852-3 0  9999,2 50199  53.2171 207.2091 0001863  83.3069 276.8135 15.08862277128361,6917.812,95.436,540.966,538.389,0.0
50199.0,STARLINK-3270,PAYLOAD,2024-03-25 14:11:46,15.08838175,0.0001084,53.2163,204.8322,90.842,269.2696,-0.00010171,-1.906e-05,0.0,0 STARLINK-3270,1 50199U 21125AV  24085.59150689 -.00001906  00000-0 -10171-3 0  9998,2 50199  53.2163 204.8322 0001084  90.8420 269.2696 15.08838175128448,6917.886,95.438,540.501,539.001,0.0
50199.0,STARLINK-3270,PAYLOAD,2024-03-26 14:02:35,15.08814565,0.0001377,53.2172,200.3709,106.9829,253.1314,2.2516e-05,7e-07,0.0,0 STARLINK-3270,1 50199U 21125AV  24086.58512791  .00000070  00000-0  22516-4 0  9990,2 50199  53.2172 200.3709 0001377 106.9829 253.1314 15.08814565128597,6917.958,95.439,540.776,538.871,0.0
50199.0,STARLINK-3270,PAYLOAD,2024-03-27 13:53:21,15.08868267,0.0001305,53.216,195.9117,102.6547,257.4591,0.0015058,0.00023777,0.0,0 STARLINK-3270,1 50199U 21125AV  24087.57872470  .00023777  00000-0  15058-2 0  9993,2 50199  53.2160 195.9117 0001305 102.6547 257.4591 15.08868267128746,6917.794,95.436,540.562,538.756,0.0
50199.0,STARLINK-3270,PAYLOAD,2024-03-28 13:44:08,15.08856004,0.0001378,53.2165,191.452,81.3643,278.7505,0.0016062,0.00025378,0.0,0 STARLINK-3270,1 50199U 21125AV  24088.57231827  .00025378  00000-0  16062-2 0  9994,2 50199  53.2165 191.4520 0001378  81.3643 278.7505 15.08856004128893,6917.831,95.437,540.65,538.743,0.0
50199.0,STARLINK-3270,PAYLOAD,2024-03-29 05:37:59,15.08851119,0.0002356,53.2167,188.4772,84.069,276.057,0.0015552,0.00024558,0.0,0 STARLINK-3270,1 50199U 21125AV  24089.23472104  .00024558  00000-0  15552-2 0  9995,2 50199  53.2167 188.4772 0002356  84.0690 276.0570 15.08851119128995,6917.846,95.437,541.341,538.082,0.0
50199.0,STARLINK-3270,PAYLOAD,2024-03-29 11:59:32,15.08844703,0.0001858,53.2176,187.2895,104.8342,255.2856,0.00071865,0.00011169,0.0,0 STARLINK-3270,1 50199U 21125AV  24089.49967849  .00011169  00000-0  71865-3 0  9992,2 50199  53.2176 187.2895 0001858 104.8342 255.2856 15.08844703129032,6917.866,95.437,541.016,538.446,0.0
50199.0,STARLINK-3270,PAYLOAD,2024-03-30 05:28:46,15.08840395,0.0001664,53.2176,184.0202,101.2857,258.8322,4.5826e-05,4.41e-06,0.0,0 STARLINK-3270,1 50199U 21125AV  24090.22831868  .00000441  00000-0  45826-4 0  9996,2 50199  53.2176 184.0202 0001664 101.2857 258.8322 15.08840395129148,6917.879,95.438,540.895,538.593,0.0
50199.0,STARLINK-3270,PAYLOAD,2024-03-30 13:25:42,15.08841168,0.0001676,53.2173,182.5338,101.0677,259.0504,6.5372e-05,7.53e-06,0.0,0 STARLINK-3270,1 50199U 21125AV  24090.55952014  .00000753  00000-0  65372-4 0  9993,2 50199  53.2173 182.5338 0001676 101.0677 259.0504 15.08841168129671,6917.877,95.437,540.901,538.582,0.0
50199.0,STARLINK-3270,PAYLOAD,2024-03-30 15:01:05,15.08844492,0.0001648,53.2162,182.2349,98.5864,261.5315,9.3373e-05,1.198e-05,0.0,0 STARLINK-3270,1 50199U 21125AV  24090.62575793  .00001198  00000-0  93373-4 0  9992,2 50199  53.2162 182.2349 0001648  98.5864 261.5315 15.08844492129687,6917.867,95.437,540.872,538.592,0.0
50199.0,STARLINK-3270,PAYLOAD,2024-03-31 13:16:29,15.08841134,0.0001431,53.2154,178.0712,80.4649,279.6505,6.8258e-05,7.99e-06,0.0,0 STARLINK-3270,1 50199U 21125AV  24091.55312206  .00000799  00000-0  68258-4 0  9993,2 50199  53.2154 178.0712 0001431  80.4649 279.6505 15.08841134129340,6917.877,95.437,540.732,538.752,0.0
50199.0,STARLINK-3270,PAYLOAD,2024-03-31 22:48:48,15.08836501,0.0001569,53.2158,176.2863,91.2162,268.901,4.0279e-05,3.53e-06,0.0,0 STARLINK-3270,1 50199U 21125AV  24091.95056516  .00000353  00000-0  40279-4 0  9995,2 50199  53.2158 176.2863 0001569  91.2162 268.9010 15.08836501129886,6917.891,95.438,540.842,538.671,0.0
50199.0,STARLINK-3270,PAYLOAD,2024-04-01 05:10:21,15.08833367,0.0001736,53.2161,175.0982,91.7474,268.3717,7.2498e-05,8.66e-06,0.0,0 STARLINK-3270,1 50199U 21125AV  24092.21552864  .00000866  00000-0  72498-4 0  9999,2 50199  53.2161 175.0982 0001736  91.7474 268.3717 15.08833367129443,6917.901,95.438,540.967,538.565,0.0
50199.0,STARLINK-3270,PAYLOAD,2024-04-01 14:42:40,15.08842076,0.0001383,53.2164,173.3119,95.3438,264.7712,8.639e-05,1.087e-05,0.0,0 STARLINK-3270,1 50199U 21125AV  24092.61296557  .00001087  00000-0  86390-4 0  9999,2 50199  53.2164 173.3119 0001383  95.3438 264.7712 15.08842076129988,6917.874,95.437,540.696,538.782,0.0
50199.0,STARLINK-3270,PAYLOAD,2024-04-02 11:22:40,15.08848597,0.0001346,53.215,169.446,86.1056,274.009,0.000211,3.073e-05,0.0,0 STARLINK-3270,1 50199U 21125AV  24093.47408277  .00003073  00000-0  21100-3 0  9992,2 50199  53.2150 169.4460 0001346  86.1056 274.0090 15.08848597129630,6917.854,95.437,540.65,538.788,0.0
50199.0,STARLINK-3270,PAYLOAD,2024-04-02 22:30:22,15.08847561,0.0001272,53.2158,167.3648,88.5266,271.5872,0.00021071,3.068e-05,0.0,0 STARLINK-3270,1 50199U 21125AV  24093.93776180  .00003068  00000-0  21071-3 0  9995,2 50199  53.2158 167.3648 0001272  88.5266 271.5872 15.08847561130182,6917.857,95.437,540.602,538.842,0.0
50199.0,STARLINK-3270,PAYLOAD,2024-04-03 11:13:28,15.08834773,0.0001335,53.2169,164.986,92.9215,267.193,0.00014048,1.948e-05,0.0,0 STARLINK-3270,1 50199U 21125AV  24094.46768886  .00001948  00000-0  14048-3 0  9999,2 50199  53.2169 164.9860 0001335  92.9215 267.1930 15.08834773129787,6917.896,95.438,540.685,538.838,0.0
50199.0,STARLINK-3270,PAYLOAD,2024-04-03 14:24:14,15.08839302,0.0001446,53.2174,164.3897,104.7684,255.3469,0.0001109,1.477e-05,0.0,0 STARLINK-3270,1 50199U 21125AV  24094.60016587  .00001477  00000-0  11090-3 0  9990,2 50199  53.2174 164.3897 0001446 104.7684 255.3469 15.08839302130288,6917.883,95.438,540.748,538.747,0.0
50199.0,STARLINK-3270,PAYLOAD,2024-04-03 22:21:10,15.08841192,0.0001441,53.2173,162.9024,100.156,259.9595,1.3368e-05,-7.5e-07,0.0,0 STARLINK-3270,1 50199U 21125AV  24094.93136598 -.00000075  00000-0  13368-4 0  9996,2 50199  53.2173 162.9024 0001441 100.1560 259.9595 15.08841192130337,6917.877,95.437,540.739,538.745,0.0
50199.0,STARLINK-3270,PAYLOAD,2024-04-04 11:04:15,15.0884024,0.0001251,53.2157,160.5264,85.6968,274.4167,-1.927e-06,-3.19e-06,0.0,0 STARLINK-3270,1 50199U 21125AV  24095.46128612 -.00000319  00000-0 -19270-5 0  9994,2 50199  53.2157 160.5264 0001251  85.6968 274.4167 15.08840240130416,6917.88,95.438,540.61,538.879,0.0
50199.0,STARLINK-3270,PAYLOAD,2024-04-05 04:33:29,15.08824768,0.0001322,53.2155,157.2554,90.2336,269.8807,0.00026274,3.894e-05,0.0,0 STARLINK-3270,1 50199U 21125AV  24096.18992760  .00003894  00000-0  26274-3 0  9996,2 50199  53.2155 157.2554 0001322  90.2336 269.8807 15.08824768130044,6917.927,95.439,540.706,538.877,0.0
50199.0,STARLINK-3270,PAYLOAD,2024-04-05 10:55:01,15.0884577,0.0001289,53.2156,156.0657,88.0007,272.1132,8.6658e-05,1.092e-05,0.0,0 STARLINK-3270,1 50199U 21125AV  24096.45487902  .00001092  00000-0  86658-4 0  9994,2 50199  53.2156 156.0657 0001289  88.0007 272.1132 15.08845770130086,6917.863,95.437,540.619,538.836,0.0
50199.0,STARLINK-3270,PAYLOAD,2024-04-05 20:27:20,15.0883914,0.0001296,53.2155,154.2816,86.8939,273.2201,1.8425e-05,5e-08,0.0,0 STARLINK-3270,1 50199U 21125AV  24096.85232448  .00000005  00000-0  18425-4 0  9991,2 50199  53.2155 154.2816 0001296  86.8939 273.2201 15.08839140130140,6917.883,95.438,540.645,538.851,0.0
50199.0,STARLINK-3270,PAYLOAD,2024-04-06 10:45:49,15.08826003,0.000147,53.2159,151.606,84.7748,275.3411,8.8187e-05,1.115e-05,0.0,0 STARLINK-3270,1 50199U 21125AV  24097.44849418  .00001115  00000-0  88187-4 0  9993,2 50199  53.2159 151.6060 0001470  84.7748 275.3411 15.08826003130235,6917.923,95.438,540.805,538.771,0.0
